OBJECT_NAME,OBJECT_ID,EPOCH,MEAN_MOTION,ECCENTRICITY,INCLINATION,RA_OF_ASC_NODE,ARG_OF_PERICENTER,MEAN_ANOMALY,EPHEMERIS_TYPE,CLASSIFICATION_TYPE,NORAD_CAT_ID,ELEMENT_SET_NO,REV_AT_EPOCH,BSTAR,MEAN_MOTION_DOT,MEAN_MOTION_DDOT
KINEIS-3C,2024-172A,2025-08-17T18:17:48.950304,14.72305718,0.0002243,98.032,318.2792,61.1719,298.9714,0,U,61220,999,4842,0.0003129,1.928e-05,0.0
KINEIS-3D,2024-172B,2025-08-17T18:08:01.018176,14.72308505,0.0002213,98.0311,318.2991,71.2345,288.9102,0,U,61221,999,4870,0.00031062,1.914e-05,0.0
KINEIS-3E,2024-172C,2025-08-17T20:59:05.814240,14.72354056,0.0001489,98.0306,318.4287,88.1882,271.9496,0,U,61222,999,4872,0.00030425,1.876e-05,0.0
KINEIS-3A,2024-172D,2025-08-17T18:59:15.429120,14.72328966,0.0001812,98.0308,318.4208,18.7553,341.3721,0,U,61223,999,4813,0.000305,1.879e-05,0.0
KINEIS-3B,2024-172E,2025-08-17T18:32:41.429472,14.72300111,0.0001431,98.0306,318.4441,348.129,11.9883,0,U,61224,999,4870,0.00029827,1.836e-05,0.0
2024-173A,2024-173A,2025-08-18T03:31:03.825120,15.34462603,0.0005487,97.373,307.1042,265.6774,94.3842,0,U,61227,999,5014,0.00045502,0.00015128,0.0
2024-173B,2024-173B,2025-08-18T04:34:46.716672,15.6023211,0.0007679,97.3622,312.281,178.0461,182.0827,0,U,61228,999,5050,0.00081996,0.00067232,0.0
2024-173C,2024-173C,2025-08-18T03:54:26.999136,15.3181761,0.0017304,97.3721,306.1111,151.6792,208.5394,0,U,61229,999,4996,0.00043101,0.00013232,0.0
2024-173D,2024-173D,2025-08-18T04:19:28.452288,15.20226061,0.0010897,97.3847,309.0911,243.0968,116.9154,0,U,61230,999,5027,0.00039543,8.521e-05,0.0
2024-173E,2024-173E,2025-08-18T04:06:53.964288,15.19174253,0.0001593,97.4116,303.0378,90.4388,269.7029,0,U,61231,999,4975,9.6507e-05,1.962e-05,0.0
2024-173F,2024-173F,2025-08-18T03:52:25.965696,15.48679162,0.0009229,97.3727,311.0106,172.2232,187.9163,0,U,61232,999,5036,0.00022038,0.00011718,0.0
2024-174A,2024-174A,2025-08-18T05:07:38.399232,15.1912292,0.0001902,97.4521,237.1126,109.0918,251.0522,0,U,61238,999,4968,0.00012021,2.456e-05,0.0
2024-174B,2024-174B,2025-08-18T04:09:55.665216,15.18214792,0.0016952,97.4502,237.2128,217.1847,142.8214,0,U,61239,999,4968,0.00022464,4.544e-05,0.0
2024-174C,2024-174C,2025-08-18T04:46:20.534592,15.21309565,0.0012945,97.4472,236.9069,211.6914,148.3544,0,U,61240,999,4964,0.00017726,3.904e-05,0.0
2024-174D,2024-174D,2025-08-18T04:25:09.831648,15.23605839,0.0012504,97.4474,237.5388,211.5075,148.5414,0,U,61241,999,4968,0.00023441,5.551e-05,0.0
2024-174E,2024-174E,2025-08-18T04:06:57.941280,15.22592997,0.0013623,97.4537,237.4918,214.2639,145.772,0,U,61242,999,4965,0.00022386,5.142e-05,0.0
STARLINK-11300 [DTC],2024-175A,2025-08-17T17:46:48.633888,15.69719369,9.84e-05,53.1586,341.6883,90.7802,269.3329,0,U,61243,999,5133,1.0571e-06,-4.6e-06,0.0
STARLINK-11276 [DTC],2024-175B,2025-08-17T17:39:44.736480,15.69711899,9.09e-05,53.1588,341.6556,91.2502,268.862,0,U,61244,999,5133,1.8906e-05,1.703e-05,0.0
STARLINK-11280 [DTC],2024-175C,2025-08-17T15:53:56.510304,15.69701422,0.000134,53.1605,341.9123,103.7726,256.3442,0,U,61245,999,5132,3.5858e-05,3.756e-05,0.0
STARLINK-11308 [DTC],2024-175D,2025-08-17T14:29:19.270464,15.69702008,9.47e-05,53.1587,342.251,72.038,288.0741,0,U,61246,999,5131,2.0912e-05,1.945e-05,0.0
STARLINK-11305 [DTC],2024-175E,2025-08-17T14:15:11.296800,15.69712716,9.04e-05,53.1587,342.1849,100.77,259.342,0,U,61247,999,5251,8.7333e-06,4.7e-06,0.0
STARLINK-11317 [DTC],2024-175F,2025-08-18T00:49:54.785568,15.69711956,9.91e-05,53.1591,339.956,87.8399,272.2732,0,U,61248,999,5238,4.7937e-07,-5.3e-06,0.0
STARLINK-11293 [DTC],2024-175G,2025-08-18T00:42:51.018624,15.6971013,0.0001063,53.1588,339.9228,83.2339,276.88,0,U,61249,999,5259,4.6468e-06,-2.6e-07,0.0
STARLINK-11334 [DTC],2024-175H,2025-08-18T06:00:04.000320,15.7571588,0.0005543,53.1544,338.0564,344.8589,212.0327,0,U,61250,999,5231,0.00076158,0.00120352,0.0
STARLINK-11319 [DTC],2024-175J,2025-08-18T00:28:52.530816,15.69706472,4.1e-05,53.16,340.59,102.5135,257.5929,0,U,61251,999,5257,-1.174e-05,-2.009e-05,0.0
STARLINK-11318 [DTC],2024-175K,2025-08-17T16:43:23.115648,15.69716554,5.29e-05,53.1595,342.1271,76.1217,283.9859,0,U,61252,999,5249,-8.9012e-07,-6.96e-06,0.0
STARLINK-11311 [DTC],2024-175L,2025-08-18T00:14:44.406816,15.69711476,7.53e-05,53.1593,340.5252,81.4185,278.6918,0,U,61253,999,5252,5.7401e-06,1.07e-06,0.0
STARLINK-11306 [DTC],2024-175M,2025-08-17T14:57:34.693344,15.69707551,8.72e-05,53.1577,342.3755,61.4237,298.6869,0,U,61254,999,5251,2.4475e-06,-2.92e-06,0.0
STARLINK-11313 [DTC],2024-175N,2025-08-17T13:18:49.806432,15.6969262,0.0001126,53.1595,342.6556,83.6394,276.4752,0,U,61255,999,5130,3.7028e-05,3.896e-05,0.0
STARLINK-32431,2024-175P,2025-08-17T21:47:30.825888,15.30189264,0.0001023,53.1598,60.5872,103.1494,256.9621,0,U,61256,999,5025,-6.0573e-06,-5.38e-06,0.0
