KINEIS-3C               
1 61220U 24172A   25229.76237211  .00001928  00000+0  31290-3 0  9993
2 61220  98.0320 318.2792 0002243  61.1719 298.9714 14.72305718 48429
KINEIS-3D               
1 61221U 24172B   25229.75556734  .00001914  00000+0  31062-3 0  9999
2 61221  98.0311 318.2991 0002213  71.2345 288.9102 14.72308505 48703
KINEIS-3E               
1 61222U 24172C   25229.87437285  .00001876  00000+0  30425-3 0  9991
2 61222  98.0306 318.4287 0001489  88.1882 271.9496 14.72354056 48727
KINEIS-3A               
1 61223U 24172D   25229.79115080  .00001879  00000+0  30500-3 0  9996
2 61223  98.0308 318.4208 0001812  18.7553 341.3721 14.72328966 48136
KINEIS-3B               
1 61224U 24172E   25229.77270173  .00001836  00000+0  29827-3 0  9993
2 61224  98.0306 318.4441 0001431 348.1290  11.9883 14.72300111 48703
2024-173A               
1 61227U 24173A   25230.14657205  .00015128  00000+0  45502-3 0  9992
2 61227  97.3730 307.1042 0005487 265.6774  94.3842 15.34462603 50141
2024-173B               
1 61228U 24173B   25230.19081848  .00067232  00000+0  81996-3 0  9992
2 61228  97.3622 312.2810 0007679 178.0461 182.0827 15.60232110 50502
2024-173C               
1 61229U 24173C   25230.16281249  .00013232  00000+0  43101-3 0  9994
2 61229  97.3721 306.1111 0017304 151.6792 208.5394 15.31817610 49962
2024-173D               
1 61230U 24173D   25230.18019042  .00008521  00000+0  39543-3 0  9998
2 61230  97.3847 309.0911 0010897 243.0968 116.9154 15.20226061 50278
2024-173E               
1 61231U 24173E   25230.17145792  .00001962  00000+0  96507-4 0  9996
2 61231  97.4116 303.0378 0001593  90.4388 269.7029 15.19174253 49755
2024-173F               
1 61232U 24173F   25230.16141164  .00011718  00000+0  22038-3 0  9992
2 61232  97.3727 311.0106 0009229 172.2232 187.9163 15.48679162 50362
2024-174A               
1 61238U 24174A   25230.21363888  .00002456  00000+0  12021-3 0  9994
2 61238  97.4521 237.1126 0001902 109.0918 251.0522 15.19122920 49688
2024-174B               
1 61239U 24174B   25230.17356094  .00004544  00000+0  22464-3 0  9993
2 61239  97.4502 237.2128 0016952 217.1847 142.8214 15.18214792 49687
2024-174C               
1 61240U 24174C   25230.19884878  .00003904  00000+0  17726-3 0  9997
2 61240  97.4472 236.9069 0012945 211.6914 148.3544 15.21309565 49647
2024-174D               
1 61241U 24174D   25230.18414157  .00005551  00000+0  23441-3 0  9997
2 61241  97.4474 237.5388 0012504 211.5075 148.5414 15.23605839 49686
2024-174E               
1 61242U 24174E   25230.17150395  .00005142  00000+0  22386-3 0  9991
2 61242  97.4537 237.4918 0013623 214.2639 145.7720 15.22592997 49659
STARLINK-11300 [DTC]    
1 61243U 24175A   25229.74084067 -.00000460  00000+0  10571-5 0  9990
2 61243  53.1586 341.6883 0000984  90.7802 269.3329 15.69719369 51338
STARLINK-11276 [DTC]    
1 61244U 24175B   25229.73593445  .00001703  00000+0  18906-4 0  9994
2 61244  53.1588 341.6556 0000909  91.2502 268.8620 15.69711899 51336
STARLINK-11280 [DTC]    
1 61245U 24175C   25229.66245961  .00003756  00000+0  35858-4 0  9999
2 61245  53.1605 341.9123 0001340 103.7726 256.3442 15.69701422 51321
STARLINK-11308 [DTC]    
1 61246U 24175D   25229.60369526  .00001945  00000+0  20912-4 0  9991
2 61246  53.1587 342.2510 0000947  72.0380 288.0741 15.69702008 51315
STARLINK-11305 [DTC]    
1 61247U 24175E   25229.59388075  .00000470  00000+0  87333-5 0  9993
2 61247  53.1587 342.1849 0000904 100.7700 259.3420 15.69712716 52513
STARLINK-11317 [DTC]    
1 61248U 24175F   25230.03466187 -.00000530  00000+0  47937-6 0  9991
2 61248  53.1591 339.9560 0000991  87.8399 272.2732 15.69711956 52388
STARLINK-11293 [DTC]    
1 61249U 24175G   25230.02975716 -.00000026  00000+0  46468-5 0  9991
2 61249  53.1588 339.9228 0001063  83.2339 276.8800 15.69710130 52593
STARLINK-11334 [DTC]    
1 61250U 24175H   25230.25004630  .00120352  00000+0  76158-3 0  9997
2 61250  53.1544 338.0564 0005543 344.8589 212.0327 15.75715880 52310
STARLINK-11319 [DTC]    
1 61251U 24175J   25230.02005244 -.00002009  00000+0 -11740-4 0  9992
2 61251  53.1600 340.5900 0000410 102.5135 257.5929 15.69706472 52570
STARLINK-11318 [DTC]    
1 61252U 24175K   25229.69679532 -.00000696  00000+0 -89012-6 0  9990
2 61252  53.1595 342.1271 0000529  76.1217 283.9859 15.69716554 52499
STARLINK-11311 [DTC]    
1 61253U 24175L   25230.01023619  .00000107  00000+0  57401-5 0  9999
2 61253  53.1593 340.5252 0000753  81.4185 278.6918 15.69711476 52520
STARLINK-11306 [DTC]    
1 61254U 24175M   25229.62331821 -.00000292  00000+0  24475-5 0  9993
2 61254  53.1577 342.3755 0000872  61.4237 298.6869 15.69707551 52514
STARLINK-11313 [DTC]    
1 61255U 24175N   25229.55474313  .00003896  00000+0  37028-4 0  9999
2 61255  53.1595 342.6556 0001126  83.6394 276.4752 15.69692620 51301
STARLINK-32431          
1 61256U 24175P   25229.90799567 -.00000538  00000+0 -60573-5 0  9994
2 61256  53.1598  60.5872 0001023 103.1494 256.9621 15.30189264 50251
